[{"OBJECT_NAME":"STARLINK-5905","OBJECT_ID":"2023-042A","EPOCH":"2026-03-09T22:31:17.200128","MEAN_MOTION":15.02535341,"ECCENTRICITY":0.00013511,"INCLINATION":43.0043,"RA_OF_ASC_NODE":55.1176,"ARG_OF_PERICENTER":275.5762,"MEAN_ANOMALY":84.4926,"EPHEMERIS_TYPE":0,"CLASSIFICATION_TYPE":"U","NORAD_CAT_ID":55986,"ELEMENT_SET_NO":999,"REV_AT_EPOCH":16376,"BSTAR":2.0543944e-5,"MEAN_MOTION_DOT":7.4e-7,"MEAN_MOTION_DDOT":0},{"OBJECT_NAME":"RAPIDEYE 3","OBJECT_ID":"2008-040D","EPOCH":"2026-03-09T19:34:21.496512","MEAN_MOTION":15.06489596,"ECCENTRICITY":0.00114187,"INCLINATION":97.3959,"RA_OF_ASC_NODE":102.9968,"ARG_OF_PERICENTER":27.1842,"MEAN_ANOMALY":332.9981,"EPHEMERIS_TYPE":0,"CLASSIFICATION_TYPE":"U","NORAD_CAT_ID":33315,"ELEMENT_SET_NO":999,"REV_AT_EPOCH":95131,"BSTAR":0.00019030529,"MEAN_MOTION_DOT":2.754e-5,"MEAN_MOTION_DDOT":0}]
